ONEWEB-0311             
1 49097U 21075Y   25281.36738311  .00000075  00000+0  16001-3 0  9996
2 49097  87.9092  55.9304 0001804  85.7044 274.4293 13.17647086200469
ONEWEB-0312             
1 49098U 21075Z   25281.38255816  .00000020  00000+0  19485-4 0  9993
2 49098  87.9086  55.9577 0002085  93.1358 267.0012 13.17647191200440
ONEWEB-0313             
1 49099U 21075AA  25281.46341965  .00000008  00000+0 -12470-4 0  9998
2 49099  87.9079  55.9515 0001800  94.1551 265.9786 13.17647316200449
ONEWEB-0314             
1 49100U 21075AB  25281.42980160 -.00000470  00000+0 -12430-2 0  9991
2 49100  87.9095  55.9016 0002041  91.4594 268.6772 13.17648637200410
ONEWEB-0315             
1 49101U 21075AC  25281.39804946  .00000437  00000+0  11780-2 0  9993
2 49101  87.8944  40.6599 0001697  85.9588 274.1734 13.12442898202145
ONEWEB-0316             
1 49102U 21075AD  25281.32475062 -.00000236  00000+0 -63032-3 0  9997
2 49102  87.9228  25.4826 0001763  96.8407 263.2926 13.18684848204010
ONEWEB-0317             
1 49103U 21075AE  25281.39155749  .00000244  00000+0  64371-3 0  9996
2 49103  87.8946  40.6767 0002133 120.3060 239.8280 13.12442856202161
ONEWEB-0318             
1 49104U 21075AF  25281.32145191 -.00000248  00000+0 -66053-3 0  9995
2 49104  87.9228  25.4699 0001782  92.9070 267.2266 13.18685669203971
